[{"OBJECT_NAME":"ASO-S","OBJECT_ID":"2022-129A","EPOCH":"2026-03-09T22:56:02.207040","MEAN_MOTION":14.52012554,"ECCENTRICITY":0.00151338,"INCLINATION":98.2779,"RA_OF_ASC_NODE":75.4501,"ARG_OF_PERICENTER":41.7143,"MEAN_ANOMALY":318.5203,"EPHEMERIS_TYPE":0,"CLASSIFICATION_TYPE":"U","NORAD_CAT_ID":54029,"ELEMENT_SET_NO":999,"REV_AT_EPOCH":18102,"BSTAR":8.1391382e-5,"MEAN_MOTION_DOT":2.85e-6,"MEAN_MOTION_DDOT":0},{"OBJECT_NAME":"CZ-6A DEB","OBJECT_ID":"2022-151DY","EPOCH":"2026-03-09T17:04:27.467328","MEAN_MOTION":14.59528987,"ECCENTRICITY":0.01227959,"INCLINATION":98.5853,"RA_OF_ASC_NODE":133.4193,"ARG_OF_PERICENTER":182.7808,"MEAN_ANOMALY":177.2723,"EPHEMERIS_TYPE":0,"CLASSIFICATION_TYPE":"U","NORAD_CAT_ID":54400,"ELEMENT_SET_NO":999,"REV_AT_EPOCH":17598,"BSTAR":0.00085607458,"MEAN_MOTION_DOT":4.463e-5,"MEAN_MOTION_DDOT":0}]
